[
    {
        "Altitude(m)": 554398.9748434433,
        "Argument of Periapsis(deg)": 0.026491964442854003,
        "Eccentricity": 0.0,
        "Inclination(deg)": 53.0,
        "Latitude(deg)": -1.2245420449428728,
        "Longitude(deg)": -79.10184660004192,
        "Mean Anomaly(deg)": -1.4517285296895985,
        "RAAN(deg)": 24.960573474112067,
        "Satellite Name": "Starlink Shell 1 129",
        "Satellite Number": 129,
        "Semi-Major Axis(m)": 6931778.249405717,
        "Time(s)": 760
    },
    {
        "Altitude(m)": 554328.2163059966,
        "Argument of Periapsis(deg)": 0.02684054292236524,
        "Eccentricity": 0.0,
        "Inclination(deg)": 53.0,
        "Latitude(deg)": -0.7206621743991259,
        "Longitude(deg)": -78.76638193780676,
        "Mean Anomaly(deg)": -0.82489732613289,
        "RAAN(deg)": 24.960054704034597,
        "Satellite Name": "Starlink Shell 1 129",
        "Satellite Number": 129,
        "Semi-Major Axis(m)": 6931778.249405717,
        "Time(s)": 770
    },
    {
        "Altitude(m)": 554260.2428077493,
        "Argument of Periapsis(deg)": 0.027189121401876473,
        "Eccentricity": 0.0,
        "Inclination(deg)": 53.0,
        "Latitude(deg)": -0.21674000005552435,
        "Longitude(deg)": -78.4309928273772,
        "Mean Anomaly(deg)": -0.1980661225761786,
        "RAAN(deg)": 24.95953593395712,
        "Satellite Name": "Starlink Shell 1 129",
        "Satellite Number": 129,
        "Semi-Major Axis(m)": 6931778.249405717,
        "Time(s)": 780
    },
    {
        "Altitude(m)": 554195.0636007721,
        "Argument of Periapsis(deg)": 0.02753769988138771,
        "Eccentricity": 0.0,
        "Inclination(deg)": 53.0,
        "Latitude(deg)": 0.2872015836752693,
        "Longitude(deg)": -78.09562123501951,
        "Mean Anomaly(deg)": 0.42876508098052973,
        "RAAN(deg)": 24.95901716387965,
        "Satellite Name": "Starlink Shell 1 129",
        "Satellite Number": 129,
        "Semi-Major Axis(m)": 6931778.249405717,
        "Time(s)": 790
    },
    {
        "Altitude(m)": 554132.6865825424,
        "Argument of Periapsis(deg)": 0.02788627836089895,
        "Eccentricity": 0.0,
        "Inclination(deg)": 53.0,
        "Latitude(deg)": 0.7911396836154246,
        "Longitude(deg)": -77.76020963646279,
        "Mean Anomaly(deg)": 1.055596284537289,
        "RAAN(deg)": 24.95849839380218,
        "Satellite Name": "Starlink Shell 1 129",
        "Satellite Number": 129,
        "Semi-Major Axis(m)": 6931778.249405717,
        "Time(s)": 800
    },
    {
        "Altitude(m)": 554073.1182947592,
        "Argument of Periapsis(deg)": 0.02823485684041019,
        "Eccentricity": 0.0,
        "Inclination(deg)": 53.0,
        "Latitude(deg)": 1.295051396144866,
        "Longitude(deg)": -77.42470048738332,
        "Mean Anomaly(deg)": 1.6824274880939498,
        "RAAN(deg)": 24.957979623724704,
        "Satellite Name": "Starlink Shell 1 129",
        "Satellite Number": 129,
        "Semi-Major Axis(m)": 6931778.249405717,
        "Time(s)": 810
    },
    {
        "Altitude(m)": 554016.3639228276,
        "Argument of Periapsis(deg)": 0.028583435319921423,
        "Eccentricity": 0.0,
        "Inclination(deg)": 53.0,
        "Latitude(deg)": 1.7989137955161618,
        "Longitude(deg)": -77.08903569387964,
        "Mean Anomaly(deg)": 2.309258691650712,
        "RAAN(deg)": 24.957460853647227,
        "Satellite Name": "Starlink Shell 1 129",
        "Satellite Number": 129,
        "Semi-Major Axis(m)": 6931778.249405717,
        "Time(s)": 820
    },
    {
        "Altitude(m)": 553962.4272960608,
        "Argument of Periapsis(deg)": 0.028932013799432665,
        "Eccentricity": 0.0,
        "Inclination(deg)": 53.0,
        "Latitude(deg)": 2.3027039221481145,
        "Longitude(deg)": -76.75315759580376,
        "Mean Anomaly(deg)": 2.936089895207417,
        "RAAN(deg)": 24.956942083569757,
        "Satellite Name": "Starlink Shell 1 129",
        "Satellite Number": 129,
        "Semi-Major Axis(m)": 6931778.249405717,
        "Time(s)": 830
    },
    {
        "Altitude(m)": 553911.3108885215,
        "Argument of Periapsis(deg)": 0.029280592278943897,
        "Eccentricity": 0.0,
        "Inclination(deg)": 53.0,
        "Latitude(deg)": 2.806398770889366,
        "Longitude(deg)": -76.41700843719364,
        "Mean Anomaly(deg)": 3.5629210987640776,
        "RAAN(deg)": 24.956423313492287,
        "Satellite Name": "Starlink Shell 1 129",
        "Satellite Number": 129,
        "Semi-Major Axis(m)": 6931778.249405717,
        "Time(s)": 840
    },
    {
        "Altitude(m)": 553863.015820551,
        "Argument of Periapsis(deg)": 0.029629170758455132,
        "Eccentricity": 0.0,
        "Inclination(deg)": 53.0,
        "Latitude(deg)": 3.309975279239141,
        "Longitude(deg)": -76.08052983667388,
        "Mean Anomaly(deg)": 4.189752302320891,
        "RAAN(deg)": 24.95590454341481,
        "Satellite Name": "Starlink Shell 1 129",
        "Satellite Number": 129,
        "Semi-Major Axis(m)": 6931778.249405717,
        "Time(s)": 850
    },
    {
        "Altitude(m)": 553817.5418609916,
        "Argument of Periapsis(deg)": 0.02997774923796637,
        "Eccentricity": 0.0,
        "Inclination(deg)": 53.0,
        "Latitude(deg)": 3.8134103155131633,
        "Longitude(deg)": -75.74366393878704,
        "Mean Anomaly(deg)": 4.816583505877548,
        "RAAN(deg)": 24.95538577333734,
        "Satellite Name": "Starlink Shell 1 129",
        "Satellite Number": 129,
        "Semi-Major Axis(m)": 6931778.249405717,
        "Time(s)": 860
    },
    {
        "Altitude(m)": 553774.8874300644,
        "Argument of Periapsis(deg)": 0.030326327717477602,
        "Eccentricity": 0.0,
        "Inclination(deg)": 53.0,
        "Latitude(deg)": 4.316680666946381,
        "Longitude(deg)": -75.40635204382208,
        "Mean Anomaly(deg)": 5.443414709434253,
        "RAAN(deg)": 24.954867003259864,
        "Satellite Name": "Starlink Shell 1 129",
        "Satellite Number": 129,
        "Semi-Major Axis(m)": 6931778.249405717,
        "Time(s)": 870
    },
    {
        "Altitude(m)": 553735.049602934,
        "Argument of Periapsis(deg)": 0.030674906196988847,
        "Eccentricity": 0.0,
        "Inclination(deg)": 53.0,
        "Latitude(deg)": 4.819763027717094,
        "Longitude(deg)": -75.0685357590458,
        "Mean Anomaly(deg)": 6.070245912991017,
        "RAAN(deg)": 24.954348233182394,
        "Satellite Name": "Starlink Shell 1 129",
        "Satellite Number": 129,
        "Semi-Major Axis(m)": 6931778.249405717,
        "Time(s)": 880
    },
    {
        "Altitude(m)": 553698.024113927,
        "Argument of Periapsis(deg)": 0.031023484676500086,
        "Eccentricity": 0.0,
        "Inclination(deg)": 53.0,
        "Latitude(deg)": 5.322633986884188,
        "Longitude(deg)": -74.73015646890332,
        "Mean Anomaly(deg)": 6.697077116547674,
        "RAAN(deg)": 24.953829463104924,
        "Satellite Name": "Starlink Shell 1 129",
        "Satellite Number": 129,
        "Semi-Major Axis(m)": 6931778.249405717,
        "Time(s)": 890
    },
    {
        "Altitude(m)": 553663.8053614495,
        "Argument of Periapsis(deg)": 0.03137206315601132,
        "Eccentricity": 0.0,
        "Inclination(deg)": 53.0,
        "Latitude(deg)": 5.825270016225218,
        "Longitude(deg)": -74.39115480515224,
        "Mean Anomaly(deg)": 7.323908320104385,
        "RAAN(deg)": 24.953310693027447,
        "Satellite Name": "Starlink Shell 1 129",
        "Satellite Number": 129,
        "Semi-Major Axis(m)": 6931778.249405717,
        "Time(s)": 900
    },
    {
        "Altitude(m)": 553632.3864135293,
        "Argument of Periapsis(deg)": 0.03172064163552255,
        "Eccentricity": 0.0,
        "Inclination(deg)": 53.0,
        "Latitude(deg)": 6.327647457962341,
        "Longitude(deg)": -74.05147162979894,
        "Mean Anomaly(deg)": 7.950739523661147,
        "RAAN(deg)": 24.952791922949974,
        "Satellite Name": "Starlink Shell 1 129",
        "Satellite Number": 129,
        "Semi-Major Axis(m)": 6931778.249405717,
        "Time(s)": 910
    },
    {
        "Altitude(m)": 553603.7590140663,
        "Argument of Periapsis(deg)": 0.0320692201150338,
        "Eccentricity": 0.0,
        "Inclination(deg)": 53.0,
        "Latitude(deg)": 6.82974251236653,
        "Longitude(deg)": -73.71104750508397,
        "Mean Anomaly(deg)": 8.577570727217859,
        "RAAN(deg)": 24.952273152872504,
        "Satellite Name": "Starlink Shell 1 129",
        "Satellite Number": 129,
        "Semi-Major Axis(m)": 6931778.249405717,
        "Time(s)": 920
    },
    {
        "Altitude(m)": 553577.9135896956,
        "Argument of Periapsis(deg)": 0.032417798594545036,
        "Eccentricity": 0.0,
        "Inclination(deg)": 53.0,
        "Latitude(deg)": 7.331531225227664,
        "Longitude(deg)": -73.3698221633859,
        "Mean Anomaly(deg)": 9.20440193077451,
        "RAAN(deg)": 24.95175438279503,
        "Satellite Name": "Starlink Shell 1 129",
        "Satellite Number": 129,
        "Semi-Major Axis(m)": 6931778.249405717,
        "Time(s)": 930
    },
    {
        "Altitude(m)": 553554.8392573507,
        "Argument of Periapsis(deg)": 0.03276637707405627,
        "Eccentricity": 0.0,
        "Inclination(deg)": 53.0,
        "Latitude(deg)": 7.832989475178132,
        "Longitude(deg)": -73.02773548991281,
        "Mean Anomaly(deg)": 9.831233134331272,
        "RAAN(deg)": 24.951235612717557,
        "Satellite Name": "Starlink Shell 1 129",
        "Satellite Number": 129,
        "Semi-Major Axis(m)": 6931778.249405717,
        "Time(s)": 940
    }
]